{
  "type": "FeatureCollection",
  "features": [
    {
      "type": "Feature",
      "properties": {
        "id": null,
        "state_code": 15,
        "state_name": "México"
      },
      "geometry": {
        "type": "Polygon",
        "coordinates": [
          [
            [
              -99.859187630451,
              20.26837710456701
            ],
            [
              -99.85950460606357,
              20.26492162452168
            ],
            [
              -99.84207094737253,
              20.28183529000672
            ],
            [
              -99.78850206884916,
              20.222910261865298
            ],
            [
              -99.72098626337295,
              20.167804448510825
            ],
            [
              -99.69911494610601,
              20.1725330001518
            ],
            [
              -99.65980997014803,
              20.18071703183811
            ],
            [
              -99.62969728695441,
              20.145798496643195
            ],
            [
              -99.51241631030561,
              20.175079143343098
            ],
            [
              -99.50512587121662,
              20.160347886307743
            ],
            [
              -99.51907279816946,
              20.148162772463685
            ],
            [
              -99.48705826130046,
              20.10506020558246
            ],
            [
              -99.44109679747862,
              20.013217183325004
            ],
            [
              -99.4449005048294,
              19.985027740849944
            ],
            [
              -99.47406226118532,
              19.954292155183587
            ],
            [
              -99.48388850517482,
              19.90518796506574
            ],
            [
              -99.4360251876776,
              19.903187423986864
            ],
            [
              -99.4325384559394,
              19.87517984888261
            ],
            [
              -99.43000265103888,
              19.870815031983245
            ],
            [
              -99.41510479724835,
              19.850445886452878
            ],
            [
              -99.37358099200242,
              19.85153709067772
            ],
            [
              -99.38784489456782,
              19.77715333601772
            ],
            [
              -99.34346830880881,
              19.780245081321436
            ],
            [
              -99.27088089353157,
              19.858629918139187
            ],
            [
              -99.23633055176207,
              19.87336117517454
            ],
            [
              -99.2182629418459,
              19.88900176906393
            ],
            [
              -99.21541016133281,
              19.954474022554393
            ],
            [
              -99.18941816110254,
              19.99266617042383
            ],
            [
              -99.14250577044301,
              20.027039103506326
            ],
            [
              -99.11841562388813,
              20.0290396445852
            ],
            [
              -99.07086928200347,
              20.017945734965984
            ],
            [
              -99.06769952587783,
              19.985027740849944
            ],
            [
              -99.0315643060455,
              20.014853989662267
            ],
            [
              -99.03441708655856,
              19.971569555410237
            ],
            [
              -99.01381367174189,
              19.981208526063
            ],
            [
              -99.0055723058152,
              20.05322800490251
            ],
            [
              -98.99130840324982,
              20.067049925083833
            ],
            [
              -98.96151269566877,
              20.040861023687647
            ],
            [
              -98.94661484187824,
              20.02722097087713
            ],
            [
              -98.94502996381543,
              19.97484316808476
            ],
            [
              -98.99574606182571,
              19.956838298374883
            ],
            [
              -98.95263737851697,
              19.906461036661387
            ],
            [
              -98.98940654957443,
              19.881363339490044
            ],
            [
              -99.02047015960574,
              19.867723286679528
            ],
            [
              -98.97038801282056,
              19.808616391167305
            ],
            [
              -98.94566391504056,
              19.803887839526325
            ],
            [
              -98.91396635378412,
              19.87699852259068
            ],
            [
              -98.8705406948628,
              19.895003392300556
            ],
            [
              -98.81475298705148,
              19.867723286679528
            ],
            [
              -98.79541747468505,
              19.856265642318697
            ],
            [
              -98.78051962089452,
              19.883545747939724
            ],
            [
              -98.75484459627681,
              19.876634787849063
            ],
            [
              -98.7291695716591,
              19.864995276117426
            ],
            [
              -98.67179698578495,
              19.853537631756595
            ],
            [
              -98.69810596162779,
              19.83189541463058
            ],
            [
              -98.6784534736488,
              19.81407241229151
            ],
            [
              -98.66101981495777,
              19.83462342519268
            ],
            [
              -98.63978244891595,
              19.810798799616986
            ],
            [
              -98.59699074121977,
              19.765695691656887
            ],
            [
              -98.60808488765952,
              19.724957400596153
            ],
            [
              -98.63280898543954,
              19.72222939003405
            ],
            [
              -98.6198129853244,
              19.660940086072145
            ],
            [
              -98.66482352230854,
              19.660394483959724
            ],
            [
              -98.66545747353366,
              19.606198007459284
            ],
            [
              -98.6705290833347,
              19.598559577885396
            ],
            [
              -98.68130625416188,
              19.598195843143785
            ],
            [
              -98.70856615684242,
              19.55454767415014
            ],
            [
              -98.65309542464365,
              19.4657963971964
            ],
            [
              -98.6350278147275,
              19.4312415967431
            ],
            [
              -98.66038586373264,
              19.432150933597132
            ],
            [
              -98.65753308321956,
              19.39705053103141
            ],
            [
              -98.64485405871699,
              19.351765555700506
            ],
            [
              -98.66387259547085,
              19.324849184821094
            ],
            [
              -98.63217503421441,
              19.263741748229993
            ],
            [
              -98.6277373756385,
              19.25774012499337
            ],
            [
              -98.64390313187928,
              19.23864405105865
            ],
            [
              -98.64041640014108,
              19.16717017433156
            ],
            [
              -98.63914849769083,
              19.16353282691542
            ],
            [
              -98.63629571717775,
              19.153348254150238
            ],
            [
              -98.62710342441338,
              19.124613209562757
            ],
            [
              -98.63914849769083,
              19.077509560523783
            ],
            [
              -98.62361669267517,
              19.066415650904567
            ],
            [
              -98.6277373756385,
              19.0222218797985
            ],
            [
              -98.63280898543954,
              19.01549278707865
            ],
            [
              -98.66672537598393,
              19.001307132155716
            ],
            [
              -98.71522264470627,
              18.942563971385106
            ],
            [
              -98.72631679114602,
              18.944746379834786
            ],
            [
              -98.79224771855941,
              18.93528927655283
            ],
            [
              -98.79953815764839,
              18.94038156293542
            ],
            [
              -98.82426225542841,
              18.95493095259997
            ],
            [
              -98.83599035309328,
              18.950020533588184
            ],
            [
              -98.84074498728175,
              18.955658422083197
            ],
            [
              -98.86863884118742,
              18.999670325818453
            ],
            [
              -98.87117464608792,
              19.025131757731412
            ],
            [
              -98.90382313418206,
              19.038408075800312
            ],
            [
              -98.91555123184693,
              19.064051375084077
            ],
            [
              -98.9789463543598,
              19.07423594784926
            ],
            [
              -98.95770898831799,
              19.122430801113076
            ],
            [
              -98.95517318341749,
              19.17389926705141
            ],
            [
              -98.96848615914519,
              19.210636475954395
            ],
            [
              -98.94598089065312,
              19.224822130877328
            ],
            [
              -98.97672752507185,
              19.25301157335239
            ],
            [
              -98.96056176883107,
              19.325394786933515
            ],
            [
              -98.97450869578391,
              19.337034298665152
            ],
            [
              -98.99194235447494,
              19.367588016960703
            ],
            [
              -99.0581902575009,
              19.40068787844755
            ],
            [
              -99.05565445260038,
              19.422148228202758
            ],
            [
              -99.05121679402448,
              19.449973935936203
            ],
            [
              -99.06421279413962,
              19.49871439131244
            ],
            [
              -99.09052176998246,
              19.509262698819235
            ],
            [
              -99.13077767277814,
              19.53599720232784
            ],
            [
              -99.11271006286196,
              19.573098145972438
            ],
            [
              -99.11809864827556,
              19.590557413569897
            ],
            [
              -99.12380420930171,
              19.592739822019578
            ],
            [
              -99.14377367289327,
              19.57237067648921
            ],
            [
              -99.1764221609874,
              19.531996120170092
            ],
            [
              -99.15740362423354,
              19.502897340840995
            ],
            [
              -99.20463299050563,
              19.514900587314248
            ],
            [
              -99.21382528326998,
              19.497077584975177
            ],
            [
              -99.20685181979357,
              19.471070550949797
            ],
            [
              -99.20875367346896,
              19.46979747935415
            ],
            [
              -99.23981728350027,
              19.41214552280838
            ],
            [
              -99.25598303974105,
              19.40341588900965
            ],
            [
              -99.32920440624342,
              19.35212929044212
            ],
            [
              -99.35646430892395,
              19.30320696769508
            ],
            [
              -99.36533962607575,
              19.27774553578212
            ],
            [
              -99.33934762584548,
              19.267560963016937
            ],
            [
              -99.32444977205495,
              19.232460560451216
            ],
            [
              -99.32223094276699,
              19.232460560451216
            ],
            [
              -99.3158914305157,
              19.227368274068624
            ],
            [
              -99.31367260122776,
              19.21900237501151
            ],
            [
              -99.30701611336391,
              19.2108183433252
            ],
            [
              -99.27912225945825,
              19.131706037024223
            ],
            [
              -99.29528801569903,
              19.12261266848388
            ],
            [
              -99.31398957684033,
              19.098242440795765
            ],
            [
              -99.31177074755237,
              19.02458615561899
            ],
            [
              -99.31303865000262,
              18.94801999250931
            ],
            [
              -99.34188343074598,
              18.92255856059635
            ],
            [
              -99.36502265046319,
              18.89891580239146
            ],
            [
              -99.42936869981375,
              18.87763732000706
            ],
            [
              -99.42683289491323,
              18.82453204773146
            ],
            [
              -99.46550391964608,
              18.759241661611803
            ],
            [
              -99.46645484648377,
              18.75360377311679
            ],
            [
              -99.49434870038944,
              18.720322044259138
            ],
            [
              -99.53333670073485,
              18.694133142862952
            ],
            [
              -99.57105679863001,
              18.706863858819432
            ],
            [
              -99.5808830426195,
              18.730142882282706
            ],
            [
              -99.62335777470312,
              18.73869064871063
            ],
            [
              -99.63128216501724,
              18.720322044259138
            ],
            [
              -99.66139484821085,
              18.771244908085055
            ],
            [
              -99.69721309243062,
              18.786158032491215
            ],
            [
              -99.70925816570806,
              18.768880632264565
            ],
            [
              -99.67217201903804,
              18.713411084168477
            ],
            [
              -99.73873689767655,
              18.737417577114982
            ],
            [
              -99.77201933699581,
              18.686494713289065
            ],
            [
              -99.78596626394864,
              18.63939106425009
            ],
            [
              -99.85855367922588,
              18.612656560741485
            ],
            [
              -99.88803241119436,
              18.61884005134892
            ],
            [
              -99.94286919216799,
              18.589741272019822
            ],
            [
              -99.96157075330929,
              18.55282219574603
            ],
            [
              -100.02179611969652,
              18.60374505957195
            ],
            [
              -100.0680745591309,
              18.59101434361547
            ],
            [
              -100.07694987628271,
              18.548821113588282
            ],
            [
              -100.08994587639785,
              18.522086610079675
            ],
            [
              -100.15936353554945,
              18.491532891784125
            ],
            [
              -100.18567251139228,
              18.45497755025195
            ],
            [
              -100.22687934102565,
              18.43078918993464
            ],
            [
              -100.25794295105696,
              18.42860678148496
            ],
            [
              -100.26808617065902,
              18.3793207239963
            ],
            [
              -100.29185934160134,
              18.38168499981679
            ],
            [
              -100.30612324416674,
              18.36786307963547
            ],
            [
              -100.35937514707754,
              18.423514495102367
            ],
            [
              -100.38536714730782,
              18.426424373035275
            ],
            [
              -100.36191095197806,
              18.496625178166717
            ],
            [
              -100.39614431813501,
              18.540455214531168
            ],
            [
              -100.42974373306683,
              18.51099270046046
            ],
            [
              -100.44939622104582,
              18.553731532600068
            ],
            [
              -100.42974373306683,
              18.59919837530178
            ],
            [
              -100.47475427005097,
              18.619021918719724
            ],
            [
              -100.48679934332841,
              18.639936666362512
            ],
            [
              -100.47348636760071,
              18.69085953018843
            ],
            [
              -100.44749436737044,
              18.701589705066034
            ],
            [
              -100.42213631836529,
              18.763242743769553
            ],
            [
              -100.43132861112966,
              18.783430021929114
            ],
            [
              -100.48204470913996,
              18.79870688107689
            ],
            [
              -100.5020141727315,
              18.830715538338893
            ],
            [
              -100.53878334378896,
              18.843991856407794
            ],
            [
              -100.5847448076108,
              18.858177511330727
            ],
            [
              -100.6132726127416,
              18.886912555918208
            ],
            [
              -100.54353797797744,
              18.9371079502609
            ],
            [
              -100.52768919734922,
              19.010400500696058
            ],
            [
              -100.47919192862688,
              19.032042717822073
            ],
            [
              -100.41167612315067,
              19.06332390560085
            ],
            [
              -100.40914031825015,
              19.074963417332487
            ],
            [
              -100.38980480588373,
              19.14298181401425
            ],
            [
              -100.3615939763655,
              19.154621325745886
            ],
            [
              -100.37268812280524,
              19.19299534098613
            ],
            [
              -100.33813778103574,
              19.227004539327012
            ],
            [
              -100.319753195507,
              19.26174120715112
            ],
            [
              -100.31785134183161,
              19.317938224730433
            ],
            [
              -100.30675719539187,
              19.32684972589997
            ],
            [
              -100.31277973203059,
              19.362313863207305
            ],
            [
              -100.29344421966417,
              19.395049989952536
            ],
            [
              -100.23733953624027,
              19.40341588900965
            ],
            [
              -100.19549875538178,
              19.44615472114926
            ],
            [
              -100.20088734079538,
              19.492712768075812
            ],
            [
              -100.17806509669074,
              19.492712768075812
            ],
            [
              -100.20183826763306,
              19.499259993424857
            ],
            [
              -100.19676665783204,
              19.531632385428477
            ],
            [
              -100.22751329225078,
              19.557639419453857
            ],
            [
              -100.2468488046172,
              19.597468373660554
            ],
            [
              -100.26523339014594,
              19.662031290296987
            ],
            [
              -100.25857690228209,
              19.700223438166425
            ],
            [
              -100.19042714558076,
              19.699495968683195
            ],
            [
              -100.14985426717251,
              19.72750354378745
            ],
            [
              -100.14478265737148,
              19.764240752690434
            ],
            [
              -100.13432246215686,
              19.845353600070286
            ],
            [
              -100.09184773007324,
              19.859902989734834
            ],
            [
              -100.13051875480609,
              19.91610000731415
            ],
            [
              -100.13146968164378,
              19.98175412817542
            ],
            [
              -100.11593787662812,
              20.00594248849273
            ],
            [
              -100.15524285258611,
              20.00721556008838
            ],
            [
              -100.15302402329816,
              20.054319209127353
            ],
            [
              -100.13780919389507,
              20.044316503732976
            ],
            [
              -100.07694987628271,
              20.029403379326816
            ],
            [
              -100.04398441257602,
              20.036496206788282
            ],
            [
              -100.00024177804214,
              20.077416365219822
            ],
            [
              -99.98027231445059,
              20.05904776076833
            ],
            [
              -99.92638646031465,
              20.06414004715092
            ],
            [
              -99.9419182653303,
              20.118882125763783
            ],
            [
              -99.93240899695337,
              20.17380607174745
            ],
            [
              -99.96600841188518,
              20.2016317794809
            ],
            [
              -99.97773650955007,
              20.2389145904963
            ],
            [
              -99.95808402157108,
              20.25164530645278
            ],
            [
              -99.95111055809467,
              20.21581743440383
            ],
            [
              -99.91941299683823,
              20.21709050599948
            ],
            [
              -99.92258275296388,
              20.231094293551607
            ],
            [
              -99.93431085062876,
              20.250190367486326
            ],
            [
              -99.91339046019951,
              20.285836372164468
            ],
            [
              -99.859187630451,
              20.26837710456701
            ]
          ]
        ]
      }
    }
  ]
}